OBJECT_NAME,OBJECT_ID,EPOCH,MEAN_MOTION,ECCENTRICITY,INCLINATION,RA_OF_ASC_NODE,ARG_OF_PERICENTER,MEAN_ANOMALY,EPHEMERIS_TYPE,CLASSIFICATION_TYPE,NORAD_CAT_ID,ELEMENT_SET_NO,REV_AT_EPOCH,BSTAR,MEAN_MOTION_DOT,MEAN_MOTION_DDOT
FLOCK 4BE-9,2024-149AY,2026-06-07T17:41:48.330816,15.40515373,.0001909,97.3788,242.9196,358.6419,1.4822,0,U,60514,999,10086,.38047E-3,.15367E-3,0
FLOCK 4BE-6,2024-149BA,2026-06-07T18:12:34.958880,15.39324888,.0002504,97.3783,242.3172,349.7485,10.3709,0,U,60516,999,10082,.38005E-3,.1476E-3,0
FLOCK 4BE-14,2024-149BB,2026-06-07T18:01:27.811776,15.40703297,.0003327,97.3690,242.4377,341.1592,18.9531,0,U,60517,999,10087,.3923E-3,.15949E-3,0
FLOCK 4BE-1,2024-149BC,2026-06-07T17:05:03.920352,15.42296293,.0003011,97.3777,243.6415,339.6900,20.4227,0,U,60518,999,10091,.45907E-3,.19702E-3,0
FLOCK 4BE-28,2024-149BD,2026-06-07T17:45:51.158016,15.44582499,.0003063,97.3742,244.3650,335.0633,25.0467,0,U,60519,999,10098,.40907E-3,.1895E-3,0
IPERDRONE.0,2024-149BE,2026-06-07T12:42:49.185216,15.65273021,.0002686,97.3783,251.2764,252.6245,107.4721,0,U,60520,999,10140,.72534E-3,.72284E-3,0
TRANSPORTER-11 OBJECT BF,2024-149BF,2026-06-07T12:26:25.007136,15.80598153,.000502,97.3758,253.7405,246.8859,113.1880,0,U,60521,999,10155,.10285E-2,.199557E-2,0
CONNECTA IOT-2,2024-149BG,2026-06-07T17:23:43.175328,15.23897046,.0006472,97.3834,237.0144,13.2278,346.9128,0,U,60522,999,10045,.21063E-3,.5018E-4,0
PTD-R (TYVAK-0127),2024-149BH,2026-06-07T18:06:31.660704,16.08151355,.000889,97.3912,258.7748,270.4471,89.5793,0,U,60523,999,10192,.14639E-2,.1196108E-1,.87171E-3
CONNECTA IOT-4,2024-149BJ,2026-06-07T17:35:11.474016,15.41807539,.0004168,97.3793,242.9935,330.9348,29.1666,0,U,60524,999,10087,.49201E-3,.20786E-3,0
ORESAT0.5,2024-149BK,2026-06-07T17:26:00.317184,15.44728156,.0004136,97.3727,244.5869,318.8075,41.2861,0,U,60525,999,10101,.4485E-3,.20896E-3,0
DEIMOS,2024-149BL,2026-06-07T18:04:56.116128,15.43892678,.0004199,97.3780,244.7568,326.6725,33.4258,0,U,60526,999,10099,.41494E-3,.18781E-3,0
CUAVA-2,2024-149BM,2026-06-07T18:24:53.785152,15.35903921,.0005705,97.3722,240.2722,336.5966,23.5017,0,U,60527,999,10072,.36106E-3,.12549E-3,0
ERNST,2024-149BN,2026-06-07T17:49:12.266112,15.38960454,.000498,97.3803,242.3932,341.9024,18.2043,0,U,60528,999,10082,.35321E-3,.13551E-3,0
TORO,2024-149BQ,2026-06-07T17:52:03.128160,14.96387207,.0001543,97.6777,233.5886,90.8696,269.2702,0,U,60530,999,9854,.2256E-3,.2498E-4,0
HYPSO-2,2024-149BR,2026-06-07T12:28:54.808320,14.98752132,.0001713,97.6826,234.9232,51.0106,309.1269,0,U,60531,999,9860,.20866E-3,.2453E-4,0
LEMU NGE,2024-149BS,2026-06-07T17:56:22.067232,14.94914513,.0002478,97.6836,233.8978,79.8215,280.3285,0,U,60532,999,9854,.27697E-3,.2966E-4,0
LEMUR-2-STELLA,2024-149BT,2026-06-07T17:58:07.870080,15.11608284,.0001948,97.6731,241.1641,99.1476,260.9974,0,U,60533,999,9907,.68942E-3,.11654E-3,0
SATELIOT_2,2024-149BU,2026-06-07T17:32:58.101792,14.96325709,.0001654,97.6819,233.8601,102.5756,257.5650,0,U,60534,999,9855,.20426E-3,.2253E-4,0
NIGHTJAR,2024-149BV,2026-06-07T17:07:06.813120,14.98978356,.0002388,97.6864,235.5520,88.7049,271.4448,0,U,60535,999,14145,.27118E-3,.3225E-4,0
LEMUR-2-MARHISYAM,2024-149BW,2026-06-07T17:24:54.057024,15.11065833,.0003026,97.6872,241.5804,135.9742,224.1729,0,U,60536,999,9905,.70315E-3,.1171E-3,0
SATELIOT_4,2024-149BX,2026-06-07T17:51:22.699008,14.96632611,.0003408,97.6727,233.4062,81.9496,278.2112,0,U,60537,999,9856,.21906E-3,.244E-4,0
PICO-02A021,2024-149BY,2026-06-07T17:08:12.388128,15.03153848,.0005617,97.6720,237.6275,54.4244,305.7504,0,U,60538,999,9831,.4521E-3,.605E-4,0
ICEYE-X43,2024-149BZ,2026-06-07T18:05:14.489952,14.99550083,.0007637,97.6760,235.8500,112.3673,247.8360,0,U,60539,999,9870,.37583E-3,.4563E-4,0
HAWK-10A,2024-149CA,2026-06-07T17:48:09.321984,14.96481427,.0004758,97.6889,234.8154,101.6524,258.5232,0,U,60540,999,9857,.16712E-3,.184E-4,0
UMBRA-09,2024-149CB,2026-06-07T16:57:24.541056,15.17791310,.0000213,97.6961,245.7524,36.0265,324.0982,0,U,60541,999,9928,.69993E-3,.14093E-3,0
QPS-SAR-8 (AMATERU-IV),2024-149CC,2026-06-07T17:55:26.950944,15.04046930,.0004832,97.6667,237.9766,127.5233,232.6433,0,U,60542,999,9885,.43298E-3,.5931E-4,0
ARCTIC WEATHER SATELLITE,2024-149CD,2026-06-07T16:24:10.859328,14.89816308,.0003377,97.6802,229.4207,122.6575,237.4969,0,U,60543,999,9788,.12023E-3,.11E-4,0
CAPELLA-15 (ACADIA-5),2024-149CE,2026-06-07T17:37:58.600992,14.92412651,.0004877,97.6758,231.8738,107.7234,252.4518,0,U,60544,999,9844,.72317E-3,.7357E-4,0
HAWK-10B,2024-149CF,2026-06-07T17:47:56.201280,14.96482789,.0006598,97.6810,234.1799,118.9623,241.2261,0,U,60545,999,9857,.1732E-3,.191E-4,0
