FLOCK 4BE-9             
1 60514U 24149AY  26158.73736494  .00015367  00000+0  38047-3 0  9997
2 60514  97.3788 242.9196 0001909 358.6419   1.4822 15.40515373100864
FLOCK 4BE-6             
1 60516U 24149BA  26158.75873795  .00014760  00000+0  38005-3 0  9997
2 60516  97.3783 242.3172 0002504 349.7485  10.3709 15.39324888100821
FLOCK 4BE-14            
1 60517U 24149BB  26158.75101634  .00015949  00000+0  39230-3 0  9995
2 60517  97.3690 242.4377 0003327 341.1592  18.9531 15.40703297100875
FLOCK 4BE-1             
1 60518U 24149BC  26158.71185093  .00019702  00000+0  45907-3 0  9992
2 60518  97.3777 243.6415 0003011 339.6900  20.4227 15.42296293100913
FLOCK 4BE-28            
1 60519U 24149BD  26158.74017544  .00018950  00000+0  40907-3 0  9990
2 60519  97.3742 244.3650 0003063 335.0633  25.0467 15.44582499100987
IPERDRONE.0             
1 60520U 24149BE  26158.52973594  .00072284  00000+0  72534-3 0  9995
2 60520  97.3783 251.2764 0002686 252.6245 107.4721 15.65273021101407
TRANSPORTER-11 OBJECT BF
1 60521U 24149BF  26158.51834499  .00199557  00000+0  10285-2 0  9992
2 60521  97.3758 253.7405 0005020 246.8859 113.1880 15.80598153101559
CONNECTA IOT-2          
1 60522U 24149BG  26158.72480527  .00005018  00000+0  21063-3 0  9990
2 60522  97.3834 237.0144 0006472  13.2278 346.9128 15.23897046100452
PTD-R (TYVAK-0127)      
1 60523U 24149BH  26158.75453311  .01196108  87171-3  14639-2 0  9995
2 60523  97.3912 258.7748 0008890 270.4471  89.5793 16.08151355101929
CONNECTA IOT-4          
1 60524U 24149BJ  26158.73277169  .00020786  00000+0  49201-3 0  9992
2 60524  97.3793 242.9935 0004168 330.9348  29.1666 15.41807539100879
ORESAT0.5               
1 60525U 24149BK  26158.72639256  .00020896  00000+0  44850-3 0  9998
2 60525  97.3727 244.5869 0004136 318.8075  41.2861 15.44728156101017
DEIMOS                  
1 60526U 24149BL  26158.75342727  .00018781  00000+0  41494-3 0  9997
2 60526  97.3780 244.7568 0004199 326.6725  33.4258 15.43892678100992
CUAVA-2                 
1 60527U 24149BM  26158.76728918  .00012549  00000+0  36106-3 0  9999
2 60527  97.3722 240.2722 0005705 336.5966  23.5017 15.35903921100722
ERNST                   
1 60528U 24149BN  26158.74250308  .00013551  00000+0  35321-3 0  9993
2 60528  97.3803 242.3932 0004980 341.9024  18.2043 15.38960454100826
TORO                    
1 60530U 24149BQ  26158.74448065  .00002498  00000+0  22560-3 0  9994
2 60530  97.6777 233.5886 0001543  90.8696 269.2702 14.96387207 98546
HYPSO-2                 
1 60531U 24149BR  26158.52007880  .00002453  00000+0  20866-3 0  9995
2 60531  97.6826 234.9232 0001713  51.0106 309.1269 14.98752132 98600
LEMU NGE                
1 60532U 24149BS  26158.74747763  .00002966  00000+0  27697-3 0  9999
2 60532  97.6836 233.8978 0002478  79.8215 280.3285 14.94914513 98545
LEMUR-2-STELLA          
1 60533U 24149BT  26158.74870220  .00011654  00000+0  68942-3 0  9997
2 60533  97.6731 241.1641 0001948  99.1476 260.9974 15.11608284 99077
SATELIOT_2              
1 60534U 24149BU  26158.73122803  .00002253  00000+0  20426-3 0  9994
2 60534  97.6819 233.8601 0001654 102.5756 257.5650 14.96325709 98558
NIGHTJAR                
1 60535U 24149BV  26158.71327330  .00003225  00000+0  27118-3 0  9990
2 60535  97.6864 235.5520 0002388  88.7049 271.4448 14.98978356141455
LEMUR-2-MARHISYAM       
1 60536U 24149BW  26158.72562566  .00011710  00000+0  70315-3 0  9999
2 60536  97.6872 241.5804 0003026 135.9742 224.1729 15.11065833 99050
SATELIOT_4              
1 60537U 24149BX  26158.74401272  .00002440  00000+0  21906-3 0  9990
2 60537  97.6727 233.4062 0003408  81.9496 278.2112 14.96632611 98563
PICO-02A021             
1 60538U 24149BY  26158.71403227  .00006050  00000+0  45210-3 0  9995
2 60538  97.6720 237.6275 0005617  54.4244 305.7504 15.03153848 98312
ICEYE-X43               
1 60539U 24149BZ  26158.75363993  .00004563  00000+0  37583-3 0  9996
2 60539  97.6760 235.8500 0007637 112.3673 247.8360 14.99550083 98707
HAWK-10A                
1 60540U 24149CA  26158.74177456  .00001840  00000+0  16712-3 0  9990
2 60540  97.6889 234.8154 0004758 101.6524 258.5232 14.96481427 98576
UMBRA-09                
1 60541U 24149CB  26158.70653404  .00014093  00000+0  69993-3 0  9992
2 60541  97.6961 245.7524 0000213  36.0265 324.0982 15.17791310 99284
QPS-SAR-8 (AMATERU-IV)  
1 60542U 24149CC  26158.74683971  .00005931  00000+0  43298-3 0  9990
2 60542  97.6667 237.9766 0004832 127.5233 232.6433 15.04046930 98855
ARCTIC WEATHER SATELLITE
1 60543U 24149CD  26158.68345902  .00001100  00000+0  12023-3 0  9999
2 60543  97.6802 229.4207 0003377 122.6575 237.4969 14.89816308 97886
CAPELLA-15 (ACADIA-5)   
1 60544U 24149CE  26158.73470603  .00007357  00000+0  72317-3 0  9995
2 60544  97.6758 231.8738 0004877 107.7234 252.4518 14.92412651 98442
HAWK-10B                
1 60545U 24149CF  26158.74162270  .00001910  00000+0  17320-3 0  9997
2 60545  97.6810 234.1799 0006598 118.9623 241.2261 14.96482789 98571
